[{"OBJECT_NAME":"STARLINK-5756","OBJECT_ID":"2023-020AF","EPOCH":"2026-03-08T19:48:13.186368","MEAN_MOTION":15.02541545,"ECCENTRICITY":0.00013445,"INCLINATION":43.0045,"RA_OF_ASC_NODE":356.824,"ARG_OF_PERICENTER":263.2487,"MEAN_ANOMALY":96.8202,"EPHEMERIS_TYPE":0,"CLASSIFICATION_TYPE":"U","NORAD_CAT_ID":55598,"ELEMENT_SET_NO":999,"REV_AT_EPOCH":16893,"BSTAR":-3.2038206e-5,"MEAN_MOTION_DOT":-6.36e-6,"MEAN_MOTION_DDOT":0},{"OBJECT_NAME":"FENGYUN 1C DEB","OBJECT_ID":"1999-025CDD","EPOCH":"2026-03-09T11:33:45.810144","MEAN_MOTION":14.75920434,"ECCENTRICITY":0.01680026,"INCLINATION":98.2535,"RA_OF_ASC_NODE":159.595,"ARG_OF_PERICENTER":312.1312,"MEAN_ANOMALY":46.5721,"EPHEMERIS_TYPE":0,"CLASSIFICATION_TYPE":"U","NORAD_CAT_ID":31695,"ELEMENT_SET_NO":999,"REV_AT_EPOCH":67250,"BSTAR":0.0010431251,"MEAN_MOTION_DOT":8.978e-5,"MEAN_MOTION_DDOT":0}]
